QIANFAN-17              
1 60395U 24140S   25224.67496015  .00000135  00000+0  18971-3 0  9994
2 60395  88.9851 312.0427 0014997 190.3870 169.6973 13.50963400 51650
QIANFAN-18              
1 60396U 24140T   25224.72856168  .00000129  00000+0  18085-3 0  9999
2 60396  88.9843 311.5803 0014979 173.0867 187.0494 13.50965313 51059
QIANFAN-19              
1 61552U 24185A   25224.67213234  .00000332  00000+0  16692-3 0  9996
2 61552  88.9790  91.9487 0006872 356.3255   3.7880 14.14123065 52417
QIANFAN-20              
1 61553U 24185B   25224.72997375  .00000329  00000+0  18321-3 0  9995
2 61553  88.9789  92.1427 0007348  31.5674 328.5949 14.08673955 52313
QIANFAN-21              
1 61554U 24185C   25224.70275902  .00000566  00000+0  24771-3 0  9998
2 61554  88.9704  91.2933 0012598  47.5225 312.7028 14.22373566 52623
QIANFAN-22              
1 61555U 24185D   25224.73267003  .00000257  00000+0  21091-3 0  9994
2 61555  88.9776  92.6326 0007695  23.6840 336.4684 13.86240896 52038
QIANFAN-23              
1 61556U 24185E   25224.67751799  .00000392  00000+0  19118-3 0  9995
2 61556  88.9783  91.8142 0008192   6.5246 353.6047 14.16095234 52477
QIANFAN-24              
1 61557U 24185F   25224.66794975  .00000482  00000+0  20542-3 0  9991
2 61557  88.9763  91.4202 0009266 351.3899   8.7132 14.23574481 52654
